VELOX-CI                
1 41166U 15077A   23327.21537899  .00011341  00000+0  50791-3 0  9993
2 41166  14.9839 307.8628 0009316 141.6998 218.3985 15.17828289438816
KENT RIDGE 1            
1 41167U 15077B   23327.42809343  .00005466  00000+0  26113-3 0  9995
2 41167  14.9821 342.3191 0010209  76.3814 283.7643 15.13185185438499
TELEOS-1                
1 41169U 15077D   23327.46521739  .00020355  00000+0  80468-3 0  9998
2 41169  14.9809 278.5683 0007747 193.6978 166.3134 15.22987800439216
GALASSIA                
1 41170U 15077E   23327.44382227  .00359544  00000+0  21793-2 0  9995
2 41170  14.9824  76.1183 0002638 148.3124 211.7365 15.75170469440830
VELOX-II                
1 41171U 15077F   23326.01931643  .00042297  00000+0  11043-2 0  9991
2 41171  14.9898 225.8653 0005202 288.4990  71.4769 15.36809260439498
DAMPE                   
1 41173U 15078A   23327.53380179  .00002209  00000+0  88076-4 0  9995
2 41173  97.4179 317.2538 0014050 145.8981 214.3163 15.26183484441450
GSAT0209 (GALILEO 12)   
1 41174U 15079A   23326.09220325  .00000079  00000+0  00000+0 0  9992
2 41174  55.3357 127.0344 0001650 342.0731  17.9272  1.70474334 48788
GSAT0208 (GALILEO 11)   
1 41175U 15079B   23324.55210922  .00000081  00000+0  00000+0 0  9997
2 41175  55.3332 127.0749 0000655 329.7681  30.2347  1.70474134 49174
ORBCOMM FM114           
1 41179U 15081A   23327.34664624  .00001608  00000+0  39892-3 0  9997
2 41179  47.0022 103.0526 0002526 239.9948 120.0686 14.56087077421077
ORBCOMM FM110           
1 41182U 15081D   23327.39226097  .00001423  00000+0  35714-3 0  9998
2 41182  47.0011 102.2602 0000946  86.1297 273.9695 14.56085313420953
ORBCOMM FM118           
1 41183U 15081E   23327.43807724  .00001226  00000+0  31313-3 0  9998
2 41183  47.0033 102.3153 0001140  79.0648 281.0364 14.56080143421060
ORBCOMM FM112           
1 41184U 15081F   23327.49821497  .00001579  00000+0  39237-3 0  9992
2 41184  47.0005  10.7835 0002408 283.5776  76.4840 14.56067687422290
ORBCOMM FM113           
1 41185U 15081G   23327.47448228  .00001427  00000+0  35839-3 0  9994
2 41185  47.0028  11.1241 0001936 297.0612  63.0075 14.56051214422275
ORBCOMM FM115           
1 41186U 15081H   23327.10185537  .00001200  00000+0  28258-3 0  9992
2 41186  46.9990 235.0253 0001170 304.9777  55.0999 14.60117528424108
ORBCOMM FM108           
1 41187U 15081J   23327.29112214  .00001586  00000+0  39404-3 0  9997
2 41187  47.0055 283.1289 0002520 227.6790 132.3881 14.56053394423396
ORBCOMM FM117           
1 41188U 15081K   23327.32553480  .00001584  00000+0  39378-3 0  9994
2 41188  47.0016 281.9181 0003232 236.7908 123.2667 14.56053896423448
ORBCOMM FM116           
1 41189U 15081L   23326.97200670  .00001620  00000+0  40175-3 0  9993
2 41189  47.0035  13.3898 0003036 297.4306  62.6270 14.56069355422206
