[{"OBJECT_NAME":"VELOX-CI","OBJECT_ID":"2015-077A","EPOCH":"2023-11-23T05:10:08.744736","MEAN_MOTION":15.17828289,"ECCENTRICITY":0.0009316,"INCLINATION":14.9839,"RA_OF_ASC_NODE":307.8628,"ARG_OF_PERICENTER":141.6998,"MEAN_ANOMALY":218.3985,"EPHEMERIS_TYPE":0,"CLASSIFICATION_TYPE":"U","NORAD_CAT_ID":41166,"ELEMENT_SET_NO":999,"REV_AT_EPOCH":43881,"BSTAR":0.00050791,"MEAN_MOTION_DOT":0.00011341,"MEAN_MOTION_DDOT":0},{"OBJECT_NAME":"KENT RIDGE 1","OBJECT_ID":"2015-077B","EPOCH":"2023-11-23T10:16:27.272352","MEAN_MOTION":15.13185185,"ECCENTRICITY":0.0010209,"INCLINATION":14.9821,"RA_OF_ASC_NODE":342.3191,"ARG_OF_PERICENTER":76.3814,"MEAN_ANOMALY":283.7643,"EPHEMERIS_TYPE":0,"CLASSIFICATION_TYPE":"U","NORAD_CAT_ID":41167,"ELEMENT_SET_NO":999,"REV_AT_EPOCH":43849,"BSTAR":0.00026113,"MEAN_MOTION_DOT":5.466e-5,"MEAN_MOTION_DDOT":0},{"OBJECT_NAME":"TELEOS-1","OBJECT_ID":"2015-077D","EPOCH":"2023-11-23T11:09:54.782496","MEAN_MOTION":15.229878,"ECCENTRICITY":0.0007747,"INCLINATION":14.9809,"RA_OF_ASC_NODE":278.5683,"ARG_OF_PERICENTER":193.6978,"MEAN_ANOMALY":166.3134,"EPHEMERIS_TYPE":0,"CLASSIFICATION_TYPE":"U","NORAD_CAT_ID":41169,"ELEMENT_SET_NO":999,"REV_AT_EPOCH":43921,"BSTAR":0.00080468,"MEAN_MOTION_DOT":0.00020355,"MEAN_MOTION_DDOT":0},{"OBJECT_NAME":"GALASSIA","OBJECT_ID":"2015-077E","EPOCH":"2023-11-23T10:39:06.244128","MEAN_MOTION":15.75170469,"ECCENTRICITY":0.0002638,"INCLINATION":14.9824,"RA_OF_ASC_NODE":76.1183,"ARG_OF_PERICENTER":148.3124,"MEAN_ANOMALY":211.7365,"EPHEMERIS_TYPE":0,"CLASSIFICATION_TYPE":"U","NORAD_CAT_ID":41170,"ELEMENT_SET_NO":999,"REV_AT_EPOCH":44083,"BSTAR":0.0021793,"MEAN_MOTION_DOT":0.00359544,"MEAN_MOTION_DDOT":0},{"OBJECT_NAME":"VELOX-II","OBJECT_ID":"2015-077F","EPOCH":"2023-11-22T00:27:48.939552","MEAN_MOTION":15.3680926,"ECCENTRICITY":0.0005202,"INCLINATION":14.9898,"RA_OF_ASC_NODE":225.8653,"ARG_OF_PERICENTER":288.499,"MEAN_ANOMALY":71.4769,"EPHEMERIS_TYPE":0,"CLASSIFICATION_TYPE":"U","NORAD_CAT_ID":41171,"ELEMENT_SET_NO":999,"REV_AT_EPOCH":43949,"BSTAR":0.0011043,"MEAN_MOTION_DOT":0.00042297,"MEAN_MOTION_DDOT":0},{"OBJECT_NAME":"DAMPE","OBJECT_ID":"2015-078A","EPOCH":"2023-11-23T12:48:40.474656","MEAN_MOTION":15.26183484,"ECCENTRICITY":0.001405,"INCLINATION":97.4179,"RA_OF_ASC_NODE":317.2538,"ARG_OF_PERICENTER":145.8981,"MEAN_ANOMALY":214.3163,"EPHEMERIS_TYPE":0,"CLASSIFICATION_TYPE":"U","NORAD_CAT_ID":41173,"ELEMENT_SET_NO":999,"REV_AT_EPOCH":44145,"BSTAR":8.8076e-5,"MEAN_MOTION_DOT":2.209e-5,"MEAN_MOTION_DDOT":0},{"OBJECT_NAME":"GSAT0209 (GALILEO 12)","OBJECT_ID":"2015-079A","EPOCH":"2023-11-22T02:12:46.360800","MEAN_MOTION":1.70474334,"ECCENTRICITY":0.000165,"INCLINATION":55.3357,"RA_OF_ASC_NODE":127.0344,"ARG_OF_PERICENTER":342.0731,"MEAN_ANOMALY":17.9272,"EPHEMERIS_TYPE":0,"CLASSIFICATION_TYPE":"U","NORAD_CAT_ID":41174,"ELEMENT_SET_NO":999,"REV_AT_EPOCH":4878,"BSTAR":0,"MEAN_MOTION_DOT":7.9e-7,"MEAN_MOTION_DDOT":0},{"OBJECT_NAME":"GSAT0208 (GALILEO 11)","OBJECT_ID":"2015-079B","EPOCH":"2023-11-20T13:15:02.236608","MEAN_MOTION":1.70474134,"ECCENTRICITY":6.55e-5,"INCLINATION":55.3332,"RA_OF_ASC_NODE":127.0749,"ARG_OF_PERICENTER":329.7681,"MEAN_ANOMALY":30.2347,"EPHEMERIS_TYPE":0,"CLASSIFICATION_TYPE":"U","NORAD_CAT_ID":41175,"ELEMENT_SET_NO":999,"REV_AT_EPOCH":4917,"BSTAR":0,"MEAN_MOTION_DOT":8.1e-7,"MEAN_MOTION_DDOT":0},{"OBJECT_NAME":"ORBCOMM FM114","OBJECT_ID":"2015-081A","EPOCH":"2023-11-23T08:19:10.235136","MEAN_MOTION":14.56087077,"ECCENTRICITY":0.0002526,"INCLINATION":47.0022,"RA_OF_ASC_NODE":103.0526,"ARG_OF_PERICENTER":239.9948,"MEAN_ANOMALY":120.0686,"EPHEMERIS_TYPE":0,"CLASSIFICATION_TYPE":"U","NORAD_CAT_ID":41179,"ELEMENT_SET_NO":999,"REV_AT_EPOCH":42107,"BSTAR":0.00039892,"MEAN_MOTION_DOT":1.608e-5,"MEAN_MOTION_DDOT":0},{"OBJECT_NAME":"ORBCOMM FM110","OBJECT_ID":"2015-081D","EPOCH":"2023-11-23T09:24:51.347808","MEAN_MOTION":14.56085313,"ECCENTRICITY":9.46e-5,"INCLINATION":47.0011,"RA_OF_ASC_NODE":102.2602,"ARG_OF_PERICENTER":86.1297,"MEAN_ANOMALY":273.9695,"EPHEMERIS_TYPE":0,"CLASSIFICATION_TYPE":"U","NORAD_CAT_ID":41182,"ELEMENT_SET_NO":999,"REV_AT_EPOCH":42095,"BSTAR":0.00035714,"MEAN_MOTION_DOT":1.423e-5,"MEAN_MOTION_DDOT":0},{"OBJECT_NAME":"ORBCOMM FM118","OBJECT_ID":"2015-081E","EPOCH":"2023-11-23T10:30:49.873536","MEAN_MOTION":14.56080143,"ECCENTRICITY":0.000114,"INCLINATION":47.0033,"RA_OF_ASC_NODE":102.3153,"ARG_OF_PERICENTER":79.0648,"MEAN_ANOMALY":281.0364,"EPHEMERIS_TYPE":0,"CLASSIFICATION_TYPE":"U","NORAD_CAT_ID":41183,"ELEMENT_SET_NO":999,"REV_AT_EPOCH":42106,"BSTAR":0.00031313,"MEAN_MOTION_DOT":1.226e-5,"MEAN_MOTION_DDOT":0},{"OBJECT_NAME":"ORBCOMM FM112","OBJECT_ID":"2015-081F","EPOCH":"2023-11-23T11:57:25.773408","MEAN_MOTION":14.56067687,"ECCENTRICITY":0.0002408,"INCLINATION":47.0005,"RA_OF_ASC_NODE":10.7835,"ARG_OF_PERICENTER":283.5776,"MEAN_ANOMALY":76.484,"EPHEMERIS_TYPE":0,"CLASSIFICATION_TYPE":"U","NORAD_CAT_ID":41184,"ELEMENT_SET_NO":999,"REV_AT_EPOCH":42229,"BSTAR":0.00039237,"MEAN_MOTION_DOT":1.579e-5,"MEAN_MOTION_DDOT":0},{"OBJECT_NAME":"ORBCOMM FM113","OBJECT_ID":"2015-081G","EPOCH":"2023-11-23T11:23:15.268992","MEAN_MOTION":14.56051214,"ECCENTRICITY":0.0001936,"INCLINATION":47.0028,"RA_OF_ASC_NODE":11.1241,"ARG_OF_PERICENTER":297.0612,"MEAN_ANOMALY":63.0075,"EPHEMERIS_TYPE":0,"CLASSIFICATION_TYPE":"U","NORAD_CAT_ID":41185,"ELEMENT_SET_NO":999,"REV_AT_EPOCH":42227,"BSTAR":0.00035839,"MEAN_MOTION_DOT":1.427e-5,"MEAN_MOTION_DDOT":0},{"OBJECT_NAME":"ORBCOMM FM115","OBJECT_ID":"2015-081H","EPOCH":"2023-11-23T02:26:40.303968","MEAN_MOTION":14.60117528,"ECCENTRICITY":0.000117,"INCLINATION":46.999,"RA_OF_ASC_NODE":235.0253,"ARG_OF_PERICENTER":304.9777,"MEAN_ANOMALY":55.0999,"EPHEMERIS_TYPE":0,"CLASSIFICATION_TYPE":"U","NORAD_CAT_ID":41186,"ELEMENT_SET_NO":999,"REV_AT_EPOCH":42410,"BSTAR":0.00028258,"MEAN_MOTION_DOT":1.2e-5,"MEAN_MOTION_DDOT":0},{"OBJECT_NAME":"ORBCOMM FM108","OBJECT_ID":"2015-081J","EPOCH":"2023-11-23T06:59:12.952896","MEAN_MOTION":14.56053394,"ECCENTRICITY":0.000252,"INCLINATION":47.0055,"RA_OF_ASC_NODE":283.1289,"ARG_OF_PERICENTER":227.679,"MEAN_ANOMALY":132.3881,"EPHEMERIS_TYPE":0,"CLASSIFICATION_TYPE":"U","NORAD_CAT_ID":41187,"ELEMENT_SET_NO":999,"REV_AT_EPOCH":42339,"BSTAR":0.00039404,"MEAN_MOTION_DOT":1.586e-5,"MEAN_MOTION_DDOT":0},{"OBJECT_NAME":"ORBCOMM FM117","OBJECT_ID":"2015-081K","EPOCH":"2023-11-23T07:48:46.206720","MEAN_MOTION":14.56053896,"ECCENTRICITY":0.0003232,"INCLINATION":47.0016,"RA_OF_ASC_NODE":281.9181,"ARG_OF_PERICENTER":236.7908,"MEAN_ANOMALY":123.2667,"EPHEMERIS_TYPE":0,"CLASSIFICATION_TYPE":"U","NORAD_CAT_ID":41188,"ELEMENT_SET_NO":999,"REV_AT_EPOCH":42344,"BSTAR":0.00039378,"MEAN_MOTION_DOT":1.584e-5,"MEAN_MOTION_DDOT":0},{"OBJECT_NAME":"ORBCOMM FM116","OBJECT_ID":"2015-081L","EPOCH":"2023-11-22T23:19:41.378880","MEAN_MOTION":14.56069355,"ECCENTRICITY":0.0003036,"INCLINATION":47.0035,"RA_OF_ASC_NODE":13.3898,"ARG_OF_PERICENTER":297.4306,"MEAN_ANOMALY":62.627,"EPHEMERIS_TYPE":0,"CLASSIFICATION_TYPE":"U","NORAD_CAT_ID":41189,"ELEMENT_SET_NO":999,"REV_AT_EPOCH":42220,"BSTAR":0.00040175,"MEAN_MOTION_DOT":1.62e-5,"MEAN_MOTION_DDOT":0}]
